{
  "type": "FeatureCollection",
  "features": [
    {
      "type": "Feature",
      "properties": {
        "norad_id": 33860,
        "name": "IRIDIUM 33 DEB",
        "group": "iridium-33-debris",
        "lat": 43.89588727987561,
        "lon": 28.923073827552788,
        "alt_km": 663.3059726739466,
        "timestamp": "2025-12-16T19:34:24.652813+00:00",
        "meta_object_name": "IRIDIUM 33 DEB",
        "meta_object_id": "1997-051AD",
        "meta_epoch": "2025-12-15T21:15:56.848032",
        "meta_mean_motion": 14.67410021,
        "meta_eccentricity": 0.00070173,
        "meta_inclination": 86.3836,
        "meta_ra_of_asc_node": 25.8456,
        "meta_arg_of_pericenter": 346.6371,
        "meta_mean_anomaly": 190.3785,
        "meta_ephemeris_type": 0,
        "meta_classification_type": "U",
        "meta_norad_cat_id": 33860,
        "meta_element_set_no": 999,
        "meta_rev_at_epoch": 88768,
        "meta_bstar": 0.00078372446,
        "meta_mean_motion_dot": 4.454e-05,
        "meta_mean_motion_ddot": 0,
        "tle_line1": "1 33860U 97051AD  25349.88607463  .00004454  00000+0  78372-3 0  9993",
        "tle_line2": "2 33860  86.3836  25.8456 0007017 346.6371 190.3785 14.67410021887687"
      },
      "geometry": {
        "type": "Point",
        "coordinates": [
          28.923073827552788,
          43.89588727987561
        ]
      }
    },
    {
      "type": "Feature",
      "properties": {
        "norad_id": 33862,
        "name": "IRIDIUM 33 DEB",
        "group": "iridium-33-debris",
        "lat": 68.84711242038604,
        "lon": -153.60615995624048,
        "alt_km": 634.5342525925516,
        "timestamp": "2025-12-16T19:34:24.652824+00:00",
        "meta_object_name": "IRIDIUM 33 DEB",
        "meta_object_id": "1997-051AF",
        "meta_epoch": "2025-12-15T20:58:50.715840",
        "meta_mean_motion": 14.69530594,
        "meta_eccentricity": 0.00531658,
        "meta_inclination": 86.4093,
        "meta_ra_of_asc_node": 36.1485,
        "meta_arg_of_pericenter": 58.6978,
        "meta_mean_anomaly": 114.7438,
        "meta_ephemeris_type": 0,
        "meta_classification_type": "U",
        "meta_norad_cat_id": 33862,
        "meta_element_set_no": 999,
        "meta_rev_at_epoch": 88869,
        "meta_bstar": 0.00090079896,
        "meta_mean_motion_dot": 5.485e-05,
        "meta_mean_motion_ddot": 0,
        "tle_line1": "1 33862U 97051AF  25349.87419810  .00005485  00000+0  90080-3 0  9996",
        "tle_line2": "2 33862  86.4093  36.1485 0053165  58.6978 114.7438 14.69530594888697"
      },
      "geometry": {
        "type": "Point",
        "coordinates": [
          -153.60615995624048,
          68.84711242038604
        ]
      }
    },
    {
      "type": "Feature",
      "properties": {
        "norad_id": 33866,
        "name": "IRIDIUM 33 DEB",
        "group": "iridium-33-debris",
        "lat": -68.57131097233285,
        "lon": -79.19866119335495,
        "alt_km": 828.8647530899261,
        "timestamp": "2025-12-16T19:34:24.652836+00:00",
        "meta_object_name": "IRIDIUM 33 DEB",
        "meta_object_id": "1997-051AK",
        "meta_epoch": "2025-12-15T19:24:47.416032",
        "meta_mean_motion": 14.25285858,
        "meta_eccentricity": 0.01147275,
        "meta_inclination": 86.2999,
        "meta_ra_of_asc_node": 91.7371,
        "meta_arg_of_pericenter": 151.6501,
        "meta_mean_anomaly": 333.8075,
        "meta_ephemeris_type": 0,
        "meta_classification_type": "U",
        "meta_norad_cat_id": 33866,
        "meta_element_set_no": 999,
        "meta_rev_at_epoch": 86854,
        "meta_bstar": 0.00049831451,
        "meta_mean_motion_dot": 1.276e-05,
        "meta_mean_motion_ddot": 0,
        "tle_line1": "1 33866U 97051AK  25349.80888213  .00001276  00000+0  49831-3 0  9992",
        "tle_line2": "2 33866  86.2999  91.7371 0114727 151.6501 333.8075 14.25285858868548"
      },
      "geometry": {
        "type": "Point",
        "coordinates": [
          -79.19866119335495,
          -68.57131097233285
        ]
      }
    },
    {
      "type": "Feature",
      "properties": {
        "norad_id": 33867,
        "name": "IRIDIUM 33 DEB",
        "group": "iridium-33-debris",
        "lat": -85.53750288751199,
        "lon": -137.46317629274532,
        "alt_km": 360.3177883337439,
        "timestamp": "2025-12-16T19:34:24.652856+00:00",
        "meta_object_name": "IRIDIUM 33 DEB",
        "meta_object_id": "1997-051AL",
        "meta_epoch": "2025-12-15T18:01:58.391328",
        "meta_mean_motion": 15.73399907,
        "meta_eccentricity": 0.0013557,
        "meta_inclination": 86.3645,
        "meta_ra_of_asc_node": 348.5349,
        "meta_arg_of_pericenter": 90.6354,
        "meta_mean_anomaly": 269.6472,
        "meta_ephemeris_type": 0,
        "meta_classification_type": "U",
        "meta_norad_cat_id": 33867,
        "meta_element_set_no": 999,
        "meta_rev_at_epoch": 89558,
        "meta_bstar": 0.0061851426,
        "meta_mean_motion_dot": 0.00940589,
        "meta_mean_motion_ddot": 0,
        "tle_line1": "1 33867U 97051AL  25349.75137027  .00940589  00000+0  61851-2 0  9991",
        "tle_line2": "2 33867  86.3645 348.5349 0013557  90.6354 269.6472 15.73399907895589"
      },
      "geometry": {
        "type": "Point",
        "coordinates": [
          -137.46317629274532,
          -85.53750288751199
        ]
      }
    },
    {
      "type": "Feature",
      "properties": {
        "norad_id": 33870,
        "name": "IRIDIUM 33 DEB",
        "group": "iridium-33-debris",
        "lat": -71.65952856171056,
        "lon": 45.48872427501459,
        "alt_km": 755.0538123343476,
        "timestamp": "2025-12-16T19:34:24.652867+00:00",
        "meta_object_name": "IRIDIUM 33 DEB",
        "meta_object_id": "1997-051AP",
        "meta_epoch": "2025-12-15T16:25:27.331104",
        "meta_mean_motion": 14.45868605,
        "meta_eccentricity": 0.00218243,
        "meta_inclination": 86.3749,
        "meta_ra_of_asc_node": 56.9985,
        "meta_arg_of_pericenter": 168.4927,
        "meta_mean_anomaly": 354.9427,
        "meta_ephemeris_type": 0,
        "meta_classification_type": "U",
        "meta_norad_cat_id": 33870,
        "meta_element_set_no": 999,
        "meta_rev_at_epoch": 88179,
        "meta_bstar": 0.00053275063,
        "meta_mean_motion_dot": 1.917e-05,
        "meta_mean_motion_ddot": 0,
        "tle_line1": "1 33870U 97051AP  25349.68434411  .00001917  00000+0  53275-3 0  9999",
        "tle_line2": "2 33870  86.3749  56.9985 0021824 168.4927 354.9427 14.45868605881790"
      },
      "geometry": {
        "type": "Point",
        "coordinates": [
          45.48872427501459,
          -71.65952856171056
        ]
      }
    },
    {
      "type": "Feature",
      "properties": {
        "norad_id": 33881,
        "name": "IRIDIUM 33 DEB",
        "group": "iridium-33-debris",
        "lat": -46.0210119354457,
        "lon": 101.21514892885963,
        "alt_km": 749.5280047952238,
        "timestamp": "2025-12-16T19:34:24.652879+00:00",
        "meta_object_name": "IRIDIUM 33 DEB",
        "meta_object_id": "1997-051BA",
        "meta_epoch": "2025-12-15T19:37:15.876768",
        "meta_mean_motion": 14.56633936,
        "meta_eccentricity": 0.00615251,
        "meta_inclination": 86.3857,
        "meta_ra_of_asc_node": 105.4046,
        "meta_arg_of_pericenter": 164.6963,
        "meta_mean_anomaly": 318.7937,
        "meta_ephemeris_type": 0,
        "meta_classification_type": "U",
        "meta_norad_cat_id": 33881,
        "meta_element_set_no": 999,
        "meta_rev_at_epoch": 87545,
        "meta_bstar": 0.0012951188,
        "meta_mean_motion_dot": 5.948e-05,
        "meta_mean_motion_ddot": 0,
        "tle_line1": "1 33881U 97051BA  25349.81754487  .00005948  00000+0  12951-2 0  9997",
        "tle_line2": "2 33881  86.3857 105.4046 0061525 164.6963 318.7937 14.56633936875459"
      },
      "geometry": {
        "type": "Point",
        "coordinates": [
          101.21514892885963,
          -46.0210119354457
        ]
      }
    },
    {
      "type": "Feature",
      "properties": {
        "norad_id": 33884,
        "name": "IRIDIUM 33 DEB",
        "group": "iridium-33-debris",
        "lat": -25.822437011489907,
        "lon": -170.26057342511808,
        "alt_km": 644.4180573316771,
        "timestamp": "2025-12-16T19:34:24.652890+00:00",
        "meta_object_name": "IRIDIUM 33 DEB",
        "meta_object_id": "1997-051BD",
        "meta_epoch": "2025-12-15T20:25:31.255680",
        "meta_mean_motion": 14.77493493,
        "meta_eccentricity": 0.00093117,
        "meta_inclination": 86.3697,
        "meta_ra_of_asc_node": 8.4142,
        "meta_arg_of_pericenter": 311.8512,
        "meta_mean_anomaly": 167.1781,
        "meta_ephemeris_type": 0,
        "meta_classification_type": "U",
        "meta_norad_cat_id": 33884,
        "meta_element_set_no": 999,
        "meta_rev_at_epoch": 88893,
        "meta_bstar": 0.00087855723,
        "meta_mean_motion_dot": 6.291e-05,
        "meta_mean_motion_ddot": 0,
        "tle_line1": "1 33884U 97051BD  25349.85105620  .00006291  00000+0  87856-3 0  9992",
        "tle_line2": "2 33884  86.3697   8.4142 0009311 311.8512 167.1781 14.77493493888939"
      },
      "geometry": {
        "type": "Point",
        "coordinates": [
          -170.26057342511808,
          -25.822437011489907
        ]
      }
    }
  ]
}